OCEANSAT-2              
1 35931U 09051A   26177.70717119 -.00000243  00000+0 -14026-3 0  9998
2 35931  98.2319 163.6086 0016005 207.4568 152.5754 13.99661391880664
WORLDVIEW-2 (WV-2)      
1 35946U 09055A   26177.69708177 -.00000313  00000+0 -89126-4 0  9992
2 35946  98.4769 251.0156 0004288 178.6579 181.4620 14.37901891877015
SMOS                    
1 36036U 09059A   26177.50192633  .00000238  00000+0  89722-4 0  9997
2 36036  98.4425   4.7004 0001313  88.8684 271.2655 14.39777236874799
YAOGAN-7                
1 36110U 09069A   26177.63437763  .00000453  00000+0  69736-4 0  9993
2 36110  98.0062  63.4426 0024912  12.1779 348.0029 14.78018524891024
TANDEM-X                
1 36605U 10030A   26177.61088745  .00000281  00000+0  16557-4 0  9994
2 36605  97.4451 185.1838 0001782  93.2192 266.9246 15.19151603888078
CARTOSAT-2B             
1 36795U 10035A   26177.74576684  .00000522  00000+0  78290-4 0  9997
2 36795  97.9954 228.2349 0011959 153.2524 206.9306 14.78671959861268
YAOGAN-10               
1 36834U 10038A   26177.78071286  .00002298  00000+0  27321-3 0  9996
2 36834  97.8979 201.1085 0001772  84.6561 328.2650 14.85379037858632
COSMO-SKYMED 4          
1 37216U 10060A   26177.76020307  .00000507  00000+0  70209-4 0  9997
2 37216  97.8891   1.2215 0001498  85.3636 274.7748 14.82153396845982
RESOURCESAT-2           
1 37387U 11015A   26177.73146308  .00000078  00000+0  55557-4 0  9996
2 37387  98.7641 245.1073 0010523 225.3291 134.7029 14.21601946787532
HAIYANG-2A              
1 37781U 11043A   26177.57575044  .00000023  00000+0  70444-4 0  9992
2 37781  99.3402 180.0435 0005019  73.9032 286.2669 13.74055066747942
RASAT                   
1 37791U 11044D   26177.79769573  .00000774  00000+0  14256-3 0  9991
2 37791  98.0576 269.0480 0020895 158.2618 319.6643 14.68175919794595
SRMSAT                  
1 37841U 11058D   26177.54557073  .00000370  00000+0  56800-4 0  9999
2 37841  19.9735   2.8256 0011715 307.2404  82.9527 14.11577357759147
PLEIADES 1A             
1 38012U 11076F   26177.73949953  .00000545  00000+0  12701-3 0  9998
2 38012  98.1977 252.7144 0001773  89.4641  22.4948 14.58537287773389
ZIYUAN 1-02C (ZY 1-02C) 
1 38038U 11079A   26177.75559882  .00000590  00000+0  20845-3 0  9997
2 38038  98.4072 244.8643 0005163 282.6016 189.4693 14.38222541760583
ARIRANG-3 (KOMPSAT-3)   
1 38338U 12025B   26177.74982998  .00000403  00000+0  89321-4 0  9997
2 38338  98.1174 135.0449 0006813  85.5654 274.6326 14.62213912752740
EXACTVIEW-1 (ADS-1B)    
1 38709U 12039C   26177.57948888  .00000091  00000+0  58546-4 0  9993
2 38709  98.9787 295.1822 0011607 140.5953 219.6071 14.24987136724046
SPOT 6                  
1 38755U 12047A   26177.73346250  .00000179  00000+0  48458-4 0  9994
2 38755  98.2120 244.9310 0001340  73.6744 286.4603 14.58527551734448
PLEIADES 1B             
1 39019U 12068A   26177.68372211  .00000551  00000+0  12822-3 0  9990
2 39019  98.1947 252.6048 0001718  85.7073 274.4322 14.58566755722238
GOKTURK 2               
1 39030U 12073A   26177.77802869  .00000637  00000+0  10047-3 0  9998
2 39030  97.6821  14.7288 0001220  57.5042 302.6286 14.75552049725922
LANDSAT 8               
1 39084U 13008A   26177.70723183  .00000278  00000+0  71873-4 0  9996
2 39084  98.2299 247.7293 0001359  93.5528 266.5826 14.57100279699284
SARAL                   
1 39086U 13009A   26177.74737131  .00000078  00000+0  44617-4 0  9995
2 39086  98.5557   4.1934 0000709 231.6635 128.4485 14.32858091696970
GAOFEN-1                
1 39150U 13018A   26177.75369088  .00000661  00000+0  10191-3 0  9997
2 39150  97.9094 249.6275 0015860 232.9466 127.0294 14.76546221709655
VNREDSAT 1              
1 39160U 13021B   26177.72028522  .00000662  00000+0  13244-3 0  9997
2 39160  97.9081 230.7711 0001744  84.2309 275.9094 14.64866292701684
ARIRANG-5 (KOMPSAT-5)   
1 39227U 13042A   26177.67688935  .00001776  00000+0  13114-3 0  9991
2 39227  97.6190   4.2436 0005135 100.4050 259.7755 15.04512439705286
SKYSAT-A                
1 39418U 13066C   26177.71476634  .00002613  00000+0  15093-3 0  9994
2 39418  97.3811 226.8082 0019636 282.0342  77.8689 15.13022639689921
DUBAISAT-2              
1 39419U 13066D   26177.74441351  .00003842  00000+0  23837-3 0  9996
2 39419  97.4561 167.6381 0011425  10.8307 349.3166 15.10248843687834
GPM-CORE                
1 39574U 14009C   26177.66205135  .00010670  00000+0  23143-3 0  9992
2 39574  64.9721 276.3900 0011460 255.3825 104.6045 15.44764959699275
SENTINEL-1A             
1 39634U 14016A   26177.76177170  .00000026  00000+0  15185-4 0  9997
2 39634  98.1780 185.1545 0001392  82.9433 277.1925 14.59200339651419
KAZEOSAT 1              
1 39731U 14024A   26177.73552951  .00000406  00000+0  13657-3 0  9998
2 39731  98.3206 249.9455 0001225  73.6643 286.4682 14.42084357639934
ALOS-2                  
1 39766U 14029A   26177.74303490  .00001269  00000+0  17682-3 0  9994
2 39766  97.9220 274.7701 0001589  88.9890 271.1504 14.79471666652997
KAZEOSAT 2              
1 40010U 14033A   26177.79517006  .00001073  00000+0  13010-3 0  9992
2 40010  97.5408  16.8995 0007114 293.5729  66.4739 14.85482784650386
